*******************************************************************************
Ephemeris / WWW_USER Mon Mar 10 07:35:19 2025 Pasadena, USA      / Horizons    
*******************************************************************************
Target body name: Lemmon (C/2018 EF9)             {source: JPL#18}
Center body name: Earth (399)                     {source: DE441}
Center-site name: Mauna Kea
*******************************************************************************
Start time      : A.D. 2018-Oct-10 04:12:00.0000 UT      
Stop  time      : A.D. 2018-Oct-10 16:05:00.0000 UT      
Step-size       : 1 minutes
*******************************************************************************
Target pole/equ : undefined
Target radii    : undefined                                                    
Center geodetic : 204.5278, 19.8260847, 4.21024   {E-lon(deg),Lat(deg),Alt(km)}
Center cylindric: 204.5278, 6006.35451, 2151.0229 {E-lon(deg),Dxy(km),Dz(km)}
Center pole/equ : ITRF93                          {East-longitude positive}
Center radii    : 6378.137, 6378.137, 6356.752 km {Equator_a, b, pole_c}       
Target primary  : Sun
Vis. interferer : MOON (R_eq= 1737.400) km        {source: DE441}
Rel. light bend : Sun                             {source: DE441}
Rel. lght bnd GM: 1.3271E+11 km^3/s^2                                          
Small-body perts: Yes                             {source: SB441-N16}
Atmos refraction: NO (AIRLESS)
RA format       : HMS
Time format     : CAL 
Calendar mode   : Mixed Julian/Gregorian
RTS-only print  : NO       
EOP file        : eop.250307.p250603                                           
EOP coverage    : DATA-BASED 1962-JAN-20 TO 2025-MAR-07. PREDICTS-> 2025-JUN-02
Units conversion: 1 au= 149597870.700 km, c= 299792.458 km/s, 1 day= 86400.0 s 
Table cut-offs 1: Elevation (-90.0deg=NO ),Airmass (>38.000=NO), Daylight (YES)
Table cut-offs 2: Solar elongation (  0.0,180.0=NO ),Local Hour Angle( 0.0=NO )
Table cut-offs 3: RA/DEC angular rate (     0.0=NO )                           
*******************************************************************************
Initial IAU76/J2000 heliocentric ecliptic osculating elements (au, days, deg.):
  EPOCH=  2458226.5 ! 2018-Apr-18.0000000 (TDB)    RMSW= n.a.                  
   EC= .9975741722198472   QR= 1.55663257903246    TP= 2458261.6283815675      
   OM= 172.5780664128357   W= 72.61657512148747    IN= 84.69445280104227       
  Equivalent ICRF heliocentric cartesian coordinates (au, au/d):
   X=-1.091857230976521E+00  Y=-4.544188696153424E-01  Z= 1.120998862172552E+00
  VX= 1.630642470498751E-02 VY=-6.481787118028984E-03 VZ= 7.403953065693920E-03
Comet physical (GM= km^3/s^2; RAD= km):                                        
   GM= n.a.                RAD= n.a.                                           
   M1=  8.6      M2=  17.8     k1=  45.25  k2=  5.      PHCOF=  .030           
*******************************************************************************
 Date__(UT)__HR:MN     R.A._________(ICRF)_________DEC
******************************************************
$$SOE
 2018-Oct-10 08:22     20 44 23.504439 +32 29 38.63496
 2018-Oct-10 08:23     20 44 23.538229 +32 29 36.82496
 2018-Oct-10 08:24     20 44 23.572024 +32 29 35.01494
 2018-Oct-10 08:25     20 44 23.605823 +32 29 33.20489
 2018-Oct-10 08:26     20 44 23.639627 +32 29 31.39483
 2018-Oct-10 08:27     20 44 23.673436 +32 29 29.58474
 2018-Oct-10 08:28     20 44 23.707249 +32 29 27.77464
 2018-Oct-10 08:29     20 44 23.741067 +32 29 25.96452
 2018-Oct-10 08:30     20 44 23.774890 +32 29 24.15437
 2018-Oct-10 08:31     20 44 23.808717 +32 29 22.34421
 2018-Oct-10 08:32     20 44 23.842550 +32 29 20.53403
 2018-Oct-10 08:33     20 44 23.876387 +32 29 18.72382
 2018-Oct-10 08:34     20 44 23.910229 +32 29 16.91360
 2018-Oct-10 08:35     20 44 23.944075 +32 29 15.10336
 2018-Oct-10 08:36     20 44 23.977927 +32 29 13.29310
 2018-Oct-10 08:37     20 44 24.011783 +32 29 11.48283
 2018-Oct-10 08:38     20 44 24.045645 +32 29 09.67253
 2018-Oct-10 08:39     20 44 24.079511 +32 29 07.86222
 2018-Oct-10 08:40     20 44 24.113382 +32 29 06.05188
 2018-Oct-10 08:41     20 44 24.147258 +32 29 04.24153
 2018-Oct-10 08:42     20 44 24.181140 +32 29 02.43116
 2018-Oct-10 08:43     20 44 24.215026 +32 29 00.62077
 2018-Oct-10 08:44     20 44 24.248917 +32 28 58.81037
 2018-Oct-10 08:45     20 44 24.282813 +32 28 56.99995
 2018-Oct-10 08:46     20 44 24.316715 +32 28 55.18951
 2018-Oct-10 08:47     20 44 24.350621 +32 28 53.37905
 2018-Oct-10 08:48     20 44 24.384533 +32 28 51.56857
 2018-Oct-10 08:49     20 44 24.418449 +32 28 49.75808
 2018-Oct-10 08:50     20 44 24.452371 +32 28 47.94757
 2018-Oct-10 08:51     20 44 24.486299 +32 28 46.13705
 2018-Oct-10 08:52     20 44 24.520231 +32 28 44.32650
 2018-Oct-10 08:53     20 44 24.554168 +32 28 42.51595
 2018-Oct-10 08:54     20 44 24.588111 +32 28 40.70537
 2018-Oct-10 08:55     20 44 24.622059 +32 28 38.89478
 2018-Oct-10 08:56     20 44 24.656013 +32 28 37.08417
 2018-Oct-10 08:57     20 44 24.689971 +32 28 35.27355
 2018-Oct-10 08:58     20 44 24.723935 +32 28 33.46291
 2018-Oct-10 08:59     20 44 24.757905 +32 28 31.65225
 2018-Oct-10 09:00     20 44 24.791880 +32 28 29.84158
 2018-Oct-10 09:01     20 44 24.825860 +32 28 28.03090
 2018-Oct-10 09:02     20 44 24.859845 +32 28 26.22020
 2018-Oct-10 09:03     20 44 24.893836 +32 28 24.40948
 2018-Oct-10 09:04     20 44 24.927833 +32 28 22.59875
 2018-Oct-10 09:05     20 44 24.961835 +32 28 20.78801
 2018-Oct-10 09:06     20 44 24.995842 +32 28 18.97725
 2018-Oct-10 09:07     20 44 25.029855 +32 28 17.16648
 2018-Oct-10 09:08     20 44 25.063874 +32 28 15.35569
 2018-Oct-10 09:09     20 44 25.097898 +32 28 13.54489
 2018-Oct-10 09:10     20 44 25.131927 +32 28 11.73407
 2018-Oct-10 09:11     20 44 25.165963 +32 28 09.92324
 2018-Oct-10 09:12     20 44 25.200003 +32 28 08.11240
 2018-Oct-10 09:13     20 44 25.234050 +32 28 06.30154
 2018-Oct-10 09:14     20 44 25.268102 +32 28 04.49067
 2018-Oct-10 09:15     20 44 25.302160 +32 28 02.67979
 2018-Oct-10 09:16     20 44 25.336223 +32 28 00.86889
 2018-Oct-10 09:17     20 44 25.370293 +32 27 59.05798
 2018-Oct-10 09:18     20 44 25.404368 +32 27 57.24706
 2018-Oct-10 09:19     20 44 25.438448 +32 27 55.43613
 2018-Oct-10 09:20     20 44 25.472535 +32 27 53.62518
 2018-Oct-10 09:21     20 44 25.506627 +32 27 51.81423
 2018-Oct-10 09:22     20 44 25.540725 +32 27 50.00326
 2018-Oct-10 09:23     20 44 25.574829 +32 27 48.19227
 2018-Oct-10 09:24     20 44 25.608939 +32 27 46.38128
 2018-Oct-10 09:25     20 44 25.643054 +32 27 44.57028
 2018-Oct-10 09:26     20 44 25.677176 +32 27 42.75926
 2018-Oct-10 09:27     20 44 25.711303 +32 27 40.94823
 2018-Oct-10 09:28     20 44 25.745436 +32 27 39.13720
 2018-Oct-10 09:29     20 44 25.779576 +32 27 37.32615
 2018-Oct-10 09:30     20 44 25.813721 +32 27 35.51509
 2018-Oct-10 09:31     20 44 25.847872 +32 27 33.70402
 2018-Oct-10 09:32     20 44 25.882029 +32 27 31.89294
 2018-Oct-10 09:33     20 44 25.916192 +32 27 30.08185
 2018-Oct-10 09:34     20 44 25.950361 +32 27 28.27075
 2018-Oct-10 09:35     20 44 25.984536 +32 27 26.45964
 2018-Oct-10 09:36     20 44 26.018717 +32 27 24.64852
 2018-Oct-10 09:37     20 44 26.052905 +32 27 22.83739
 2018-Oct-10 09:38     20 44 26.087098 +32 27 21.02625
 2018-Oct-10 09:39     20 44 26.121297 +32 27 19.21510
 2018-Oct-10 09:40     20 44 26.155503 +32 27 17.40395
 2018-Oct-10 09:41     20 44 26.189715 +32 27 15.59278
 2018-Oct-10 09:42     20 44 26.223932 +32 27 13.78161
 2018-Oct-10 09:43     20 44 26.258156 +32 27 11.97042
 2018-Oct-10 09:44     20 44 26.292386 +32 27 10.15923
 2018-Oct-10 09:45     20 44 26.326623 +32 27 08.34804
 2018-Oct-10 09:46     20 44 26.360865 +32 27 06.53683
 2018-Oct-10 09:47     20 44 26.395114 +32 27 04.72562
 2018-Oct-10 09:48     20 44 26.429369 +32 27 02.91439
 2018-Oct-10 09:49     20 44 26.463631 +32 27 01.10317
 2018-Oct-10 09:50     20 44 26.497898 +32 26 59.29193
 2018-Oct-10 09:51     20 44 26.532172 +32 26 57.48069
 2018-Oct-10 09:52     20 44 26.566452 +32 26 55.66944
 2018-Oct-10 09:53     20 44 26.600739 +32 26 53.85818
 2018-Oct-10 09:54     20 44 26.635031 +32 26 52.04692
 2018-Oct-10 09:55     20 44 26.669330 +32 26 50.23565
 2018-Oct-10 09:56     20 44 26.703636 +32 26 48.42438
 2018-Oct-10 09:57     20 44 26.737948 +32 26 46.61309
 2018-Oct-10 09:58     20 44 26.772266 +32 26 44.80181
 2018-Oct-10 09:59     20 44 26.806591 +32 26 42.99052
 2018-Oct-10 10:00     20 44 26.840922 +32 26 41.17922
 2018-Oct-10 10:01     20 44 26.875259 +32 26 39.36792
 2018-Oct-10 10:02     20 44 26.909603 +32 26 37.55661
 2018-Oct-10 10:03     20 44 26.943954 +32 26 35.74530
 2018-Oct-10 10:04     20 44 26.978311 +32 26 33.93398
 2018-Oct-10 10:05     20 44 27.012674 +32 26 32.12266
 2018-Oct-10 10:06     20 44 27.047044 +32 26 30.31133
 2018-Oct-10 10:07     20 44 27.081420 +32 26 28.50000
 2018-Oct-10 10:08     20 44 27.115803 +32 26 26.68867
 2018-Oct-10 10:09     20 44 27.150193 +32 26 24.87733
 2018-Oct-10 10:10     20 44 27.184589 +32 26 23.06599
 2018-Oct-10 10:11     20 44 27.218991 +32 26 21.25465
 2018-Oct-10 10:12     20 44 27.253401 +32 26 19.44330
 2018-Oct-10 10:13     20 44 27.287816 +32 26 17.63195
 2018-Oct-10 10:14     20 44 27.322239 +32 26 15.82060
 2018-Oct-10 10:15     20 44 27.356668 +32 26 14.00924
 2018-Oct-10 10:16     20 44 27.391103 +32 26 12.19788
 2018-Oct-10 10:17     20 44 27.425546 +32 26 10.38652
 2018-Oct-10 10:18     20 44 27.459994 +32 26 08.57516
 2018-Oct-10 10:19     20 44 27.494450 +32 26 06.76380
 2018-Oct-10 10:20     20 44 27.528912 +32 26 04.95243
 2018-Oct-10 10:21     20 44 27.563381 +32 26 03.14107
 2018-Oct-10 10:22     20 44 27.597857 +32 26 01.32970
 2018-Oct-10 10:23     20 44 27.632339 +32 25 59.51833
 2018-Oct-10 10:24     20 44 27.666828 +32 25 57.70696
 2018-Oct-10 10:25     20 44 27.701324 +32 25 55.89559
 2018-Oct-10 10:26     20 44 27.735826 +32 25 54.08422
